ONEWEB-0363             
1 49289U 21090L   24125.83932598 -.00000007  00000+0 -49042-4 0  9996
2 49289  87.9203  68.3132 0001928  69.4926 290.6414 13.20771278129053
ONEWEB-0364             
1 49290U 21090M   24125.87720257  .00000101  00000+0  21634-3 0  9998
2 49290  87.9204  68.3301 0001850  85.3857 274.7487 13.20773305130180
ONEWEB-0365             
1 49291U 21090N   24125.85543046  .00000040  00000+0  66807-4 0  9990
2 49291  87.9111  98.8766 0002090  89.8064 270.3308 13.19725116125719
ONEWEB-0366             
1 49292U 21090P   24125.16578889  .00000129  00000+0  31348-3 0  9997
2 49292  87.8937  83.7270 0001830  84.0397 276.0941 13.14503901127174
ONEWEB-0367             
1 49293U 21090Q   24125.83774385  .00000006  00000+0 -17472-4 0  9999
2 49293  87.9203  68.3080 0001768  84.9177 275.2158 13.20770491129041
ONEWEB-0368             
1 49294U 21090R   24125.12909899  .00000067  00000+0  13293-3 0  9994
2 49294  87.9203  68.4790 0001154  77.0096 283.1166 13.20771084130108
ONEWEB-0369             
1 49295U 21090S   24124.94088121  .00000007  00000+0 -15679-4 0  9996
2 49295  87.9118  99.0591 0001942  90.4710 269.6645 13.19724219124290
ONEWEB-0370             
1 49296U 21090T   24125.54419999  .00000064  00000+0  12457-3 0  9997
2 49296  87.9204  68.3706 0002431  80.8721 279.2688 13.20774200129042
